GLOBALSTAR M067         
1 32263U 07048A   25133.71574391 -.00000081  00000+0  12010-3 0  9992
2 32263  51.9697 136.7977 0000999 275.0853 256.7811 12.40672288805207
GLOBALSTAR M070         
1 32264U 07048B   25133.78870086 -.00000063  00000+0  22657-3 0  9998
2 32264  51.9746 233.2953 0000599 112.5379  30.2700 12.62317779809328
GLOBALSTAR M066         
1 32265U 07048C   25133.22576694 -.00000101  00000+0 -42851-4 0  9999
2 32265  51.9618 126.6728 0001565 170.4956 202.9779 12.35103803810989
GLOBALSTAR M068         
1 32266U 07048D   25133.88429818 -.00000054  00000+0  27477-3 0  9999
2 32266  51.9903  46.8214 0001654  60.3674  22.9569 12.62823090813227
GLOBALSTAR M079         
1 37188U 10054A   25133.66995449 -.00000082  00000+0  12326-3 0  9990
2 37188  52.0035 244.8606 0000693 155.0633 345.5113 12.62274006672091
GLOBALSTAR M074         
1 37189U 10054B   25133.77205791 -.00000077  00000+0  14723-3 0  9994
2 37189  52.0015 243.8793 0000416 125.3639 358.1279 12.62274907672717
GLOBALSTAR M076         
1 37190U 10054C   25133.72826809 -.00000081  00000+0  12503-3 0  9999
2 37190  52.0025 244.1787 0000401 155.3669  10.0617 12.62262537672421
GLOBALSTAR M077         
1 37191U 10054D   25133.63586373 -.00000059  00000+0  24795-3 0  9990
2 37191  52.0058 201.3087 0000302 141.6959  22.9703 12.62268074672785
